NORAD_CAT_ID,OBJECT_NAME,OBJECT_TYPE,EPOCH,MEAN_MOTION,ECCENTRICITY,INCLINATION,RA_OF_ASC_NODE,ARG_OF_PERICENTER,MEAN_ANOMALY,BSTAR,MEAN_MOTION_DOT,MEAN_MOTION_DDOT,TLE_LINE0,TLE_LINE1,TLE_LINE2,SEMIMAJOR_AXIS,PERIOD,APOGEE,PERIGEE,DECAYED
53965.0,STARLINK-4578,PAYLOAD,2023-01-06 10:28:46,15.08822054,0.000247,53.217,23.8384,35.6249,324.4908,-0.00077666,-0.00012622,0.0,0 STARLINK-4578,1 53965U 22125B   23006.43664878 -.00012622  00000-0 -77666-3 0  9997,2 53965  53.2170  23.8384 0002470  35.6249 324.4908 15.08822054 14536,6917.935,95.439,541.509,538.092,0.0
53965.0,STARLINK-4578,PAYLOAD,2023-01-06 13:39:32,15.08822216,0.0002301,53.2168,23.2445,32.7464,327.367,-0.00043703,-7.234e-05,0.0,0 STARLINK-4578,1 53965U 22125B   23006.56913018 -.00007234  00000-0 -43703-3 0  9992,2 53965  53.2168  23.2445 0002301  32.7464 327.3670 15.08822216 14487,6917.935,95.439,541.3919999999998,538.2080000000002,0.0
53965.0,STARLINK-4578,PAYLOAD,2023-01-07 07:08:48,15.08836634,0.0002507,53.2171,19.9729,33.141,326.9738,0.00094443,0.00014773,0.0,0 STARLINK-4578,1 53965U 22125B   23007.29777787  .00014773  00000-0  94443-3 0  9995,2 53965  53.2171  19.9729 0002507  33.1410 326.9738 15.08836634 14593,6917.891,95.438,541.49,538.021,0.0
53965.0,STARLINK-4578,PAYLOAD,2023-01-07 10:19:34,15.08833758,0.0002667,53.2174,19.3786,30.3004,329.8142,0.00076081,0.00011839,0.0,0 STARLINK-4578,1 53965U 22125B   23007.43026063  .00011839  00000-0  76081-3 0  9993,2 53965  53.2174  19.3786 0002667  30.3004 329.8142 15.08833758 14683,6917.899,95.438,541.609,537.919,0.0
53965.0,STARLINK-4578,PAYLOAD,2023-01-07 11:54:57,15.08834622,0.0002676,53.2174,19.0812,31.9547,328.1607,0.0007469,0.00011617,0.0,0 STARLINK-4578,1 53965U 22125B   23007.49650097  .00011617  00000-0  74690-3 0  9997,2 53965  53.2174  19.0812 0002676  31.9547 328.1607 15.08834622 14622,6917.897,95.438,541.613,537.911,0.0
53965.0,STARLINK-4578,PAYLOAD,2023-01-08 00:38:03,15.08830183,0.0002604,53.2178,16.7022,32.9581,327.1573,0.00024606,3.629e-05,0.0,0 STARLINK-4578,1 53965U 22125B   23008.02642585  .00003629  00000-0  24606-3 0  9996,2 53965  53.2178  16.7022 0002604  32.9581 327.1573 15.08830183 14778,6917.91,95.438,541.577,537.974,0.0
53965.0,STARLINK-4578,PAYLOAD,2023-01-08 06:59:35,15.08834853,0.0002552,53.2182,15.512,34.2874,325.8283,0.00037446,5.676e-05,0.0,0 STARLINK-4578,1 53965U 22125B   23008.29138672  .00005676  00000-0  37446-3 0  9992,2 53965  53.2182  15.5120 0002552  34.2874 325.8283 15.08834853 14749,6917.896,95.438,541.5269999999998,537.996,0.0
53965.0,STARLINK-4578,PAYLOAD,2023-01-09 11:36:31,15.08855274,0.0002446,53.2185,10.1611,26.511,333.6007,0.00035081,5.302e-05,0.0,0 STARLINK-4578,1 53965U 22125B   23009.48369942  .00005302  00000-0  35081-3 0  9999,2 53965  53.2185  10.1611 0002446  26.5110 333.6007 15.08855274 14995,6917.834,95.437,541.391,538.007,0.0
53965.0,STARLINK-4578,PAYLOAD,2023-01-09 16:22:41,15.08849207,0.0002536,53.2183,9.2683,31.8928,328.2217,0.00020025,2.901e-05,0.0,0 STARLINK-4578,1 53965U 22125B   23009.68241995  .00002901  00000-0  20025-3 0  9992,2 53965  53.2183   9.2683 0002536  31.8928 328.2217 15.08849207 14955,6917.852,95.437,541.472,537.9630000000002,0.0
53965.0,STARLINK-4578,PAYLOAD,2023-01-10 03:30:22,15.08847565,0.0002544,53.2193,7.1867,28.6207,331.4925,9.8143e-05,1.274e-05,0.0,0 STARLINK-4578,1 53965U 22125B   23010.14609828  .00001274  00000-0  98143-4 0  9997,2 53965  53.2193   7.1867 0002544  28.6207 331.4925 15.08847565 15093,6917.857,95.437,541.482,537.962,0.0
53965.0,STARLINK-4578,PAYLOAD,2023-01-10 11:27:18,15.08840755,0.0002507,53.2183,5.7003,30.5384,329.5753,5.0537e-05,5.16e-06,0.0,0 STARLINK-4578,1 53965U 22125B   23010.47730189  .00000516  00000-0  50537-4 0  9991,2 53965  53.2183   5.7003 0002507  30.5384 329.5753 15.08840755 15074,6917.8780000000015,95.438,541.477,538.009,0.0
53965.0,STARLINK-4578,PAYLOAD,2023-01-10 16:13:28,15.08838695,0.0002504,53.2183,4.8081,30.3983,329.7154,-6.9049e-05,-1.387e-05,0.0,0 STARLINK-4578,1 53965U 22125B   23010.67602133 -.00001387  00000-0 -69049-4 0  9997,2 53965  53.2183   4.8081 0002504  30.3983 329.7154 15.08838695 15178,6917.884,95.438,541.482,538.0169999999998,0.0
53965.0,STARLINK-4578,PAYLOAD,2023-01-11 08:07:19,15.08850591,0.000253,53.2183,1.8348,32.6912,327.4236,0.00019114,2.756e-05,0.0,0 STARLINK-4578,1 53965U 22125B   23011.33841496  .00002756  00000-0  19114-3 0  9994,2 53965  53.2183   1.8348 0002530  32.6912 327.4236 15.08850591 15273,6917.848000000001,95.437,541.4630000000002,537.9630000000002,0.0
53965.0,STARLINK-4578,PAYLOAD,2023-01-11 16:04:14,15.08848069,0.0002505,53.2176,0.3482,33.9031,326.2121,0.00013624,1.881e-05,0.0,0 STARLINK-4578,1 53965U 22125B   23011.66961547  .00001881  00000-0  13624-3 0  9998,2 53965  53.2176   0.3482 0002505  33.9031 326.2121 15.08848069 15251,6917.856,95.437,541.4540000000002,537.988,0.0
53965.0,STARLINK-4578,PAYLOAD,2023-01-12 11:08:52,15.08846569,0.0002424,53.218,356.7796,34.6131,325.5018,4.6784e-05,4.56e-06,0.0,0 STARLINK-4578,1 53965U 22125B   23012.46449317  .00000456  00000-0  46784-4 0  9994,2 53965  53.2180 356.7796 0002424  34.6131 325.5018 15.08846569 15442,6917.86,95.437,541.4019999999998,538.048,0.0
53965.0,STARLINK-4578,PAYLOAD,2023-01-12 22:16:34,15.08838804,0.0002465,53.2181,354.6979,32.3258,327.7885,4.3858e-05,4.1e-06,0.0,0 STARLINK-4578,1 53965U 22125B   23012.92817724  .00000410  00000-0  43858-4 0  9995,2 53965  53.2181 354.6979 0002465  32.3258 327.7885 15.08838804 15510,6917.884,95.438,541.4540000000002,538.044,0.0
53965.0,STARLINK-4578,PAYLOAD,2023-01-13 06:13:29,15.08843346,0.0002225,53.2177,353.2109,33.7707,326.3426,-3.593e-06,-3.46e-06,0.0,0 STARLINK-4578,1 53965U 22125B   23013.25937450 -.00000346  00000-0 -35930-5 0  9994,2 53965  53.2177 353.2109 0002225  33.7707 326.3426 15.08843346 15493,6917.87,95.437,541.274,538.196,0.0
53965.0,STARLINK-4578,PAYLOAD,2023-01-13 22:07:21,15.08843021,0.0002306,53.2188,350.2362,32.808,327.3055,6.4028e-05,7.31e-06,0.0,0 STARLINK-4578,1 53965U 22125B   23013.92177536  .00000731  00000-0  64028-4 0  9994,2 53965  53.2188 350.2362 0002306  32.8080 327.3055 15.08843021 15597,6917.871,95.437,541.331,538.141,0.0
53965.0,STARLINK-4578,PAYLOAD,2023-01-14 04:28:53,15.08859862,0.0002251999999999,53.2183,349.0477,31.6451,328.4677,0.000338,5.098e-05,0.0,0 STARLINK-4578,1 53965U 22125B   23014.18672633  .00005098  00000-0  33800-3 0  9995,2 53965  53.2183 349.0477 0002252  31.6451 328.4677 15.08859862 15709,6917.82,95.436,541.243,538.127,0.0
53965.0,STARLINK-4578,PAYLOAD,2023-01-14 15:36:35,15.08842678,0.0002159,53.2175,346.9656,40.9943,319.1211,0.0001230999999999,1.672e-05,0.0,0 STARLINK-4578,1 53965U 22125B   23014.65041440  .00001672  00000-0  12310-3 0  9990,2 53965  53.2175 346.9656 0002159  40.9943 319.1211 15.08842678 15775,6917.871999999999,95.437,541.231,538.244,0.0
53965.0,STARLINK-4578,PAYLOAD,2023-01-15 04:19:42,15.08810527,0.0001869,53.2192,344.5885,30.2357,329.8743,-0.00031115,-5.233e-05,0.0,0 STARLINK-4578,1 53965U 22125B   23015.18035561 -.00005233  00000-0 -31115-3 0  9999,2 53965  53.2192 344.5885 0001869  30.2357 329.8743 15.08810527 15855,6917.97,95.439,541.128,538.543,0.0
53965.0,STARLINK-4578,PAYLOAD,2023-01-15 07:30:28,15.08821718,0.0002061999999999,53.2157,343.9904,51.4419,308.6758,-0.00023942,-4.095e-05,0.0,0 STARLINK-4578,1 53965U 22125B   23015.31283213 -.00004095  00000-0 -23942-3 0  9997,2 53965  53.2157 343.9904 0002062  51.4419 308.6758 15.08821718 15878,6917.936,95.439,541.2280000000001,538.375,0.0
53965.0,STARLINK-4578,PAYLOAD,2023-01-15 17:02:47,15.08837464,0.0002032,53.2165,342.2083,51.3778,308.7395,0.00018399,2.641e-05,0.0,0 STARLINK-4578,1 53965U 22125B   23015.71026882  .00002641  00000-0  18399-3 0  9991,2 53965  53.2165 342.2083 0002032  51.3778 308.7395 15.08837464 15931,6917.888000000001,95.438,541.159,538.347,0.0
53965.0,STARLINK-4578,PAYLOAD,2023-01-16 04:10:28,15.0886788,0.0001744,53.2179,340.1264,48.4211,311.693,0.0015260999999999,0.00024102,0.0,0 STARLINK-4578,1 53965U 22125B   23016.17394570  .00024102  00000-0  15261-2 0  9994,2 53965  53.2179 340.1264 0001744  48.4211 311.6930 15.08867880 16004,6917.795,95.436,540.867,538.4540000000001,0.0
53965.0,STARLINK-4578,PAYLOAD,2023-01-16 21:39:44,15.08836429,0.0002070999999999,53.2171,336.8541,57.7789,302.3404,-0.00029515,-4.982e-05,0.0,0 STARLINK-4578,1 53965U 22125B   23016.90259581 -.00004982  00000-0 -29515-3 0  9991,2 53965  53.2171 336.8541 0002071  57.7789 302.3404 15.08836429 16045,6917.891,95.438,541.189,538.3240000000001,0.0
53965.0,STARLINK-4578,PAYLOAD,2023-01-17 04:01:17,15.08812589,0.0001426,53.2165,335.6679,71.9803,288.1345,-0.00034729,-5.807e-05,0.0,0 STARLINK-4578,1 53965U 22125B   23017.16756128 -.00005807  00000-0 -34729-3 0  9999,2 53965  53.2165 335.6679 0001426  71.9803 288.1345 15.08812589 16153,6917.964,95.439,540.816,538.8430000000001,0.0
53965.0,STARLINK-4578,PAYLOAD,2023-01-17 13:33:37,15.08821854,0.0001408,53.2166,333.884,82.959,277.1562,0.0017383,0.00027472,0.0,0 STARLINK-4578,1 53965U 22125B   23017.56501193  .00027472  00000-0  17383-2 0  9999,2 53965  53.2166 333.8840 0001408  82.9590 277.1562 15.08821854 16142,6917.936,95.439,540.775,538.827,0.0
53965.0,STARLINK-4578,PAYLOAD,2023-01-17 16:44:23,15.08835845,0.0001403,53.217,333.289,83.8371,276.2781,0.0022362,0.00035477,0.0,0 STARLINK-4578,1 53965U 22125B   23017.69749272  .00035477  00000-0  22362-2 0  9992,2 53965  53.2170 333.2890 0001403  83.8371 276.2781 15.08835845 16236,6917.893,95.438,540.729,538.788,0.0
53965.0,STARLINK-4578,PAYLOAD,2023-01-18 07:02:50,15.08893287,0.0001416999999999,53.2169,330.6125,86.4946,273.6209,0.0030997,0.00049462,0.0,0 STARLINK-4578,1 53965U 22125B   23018.29364310  .00049462  00000-0  30997-2 0  9997,2 53965  53.2169 330.6125 0001417  86.4946 273.6209 15.08893287 16328,6917.718000000001,95.434,540.563,538.602,0.0
